ONEWEB-0236             
1 48797U 21045AG  26154.33340323 -.00000533  00000+0 -14501-2 0  9991
2 48797  87.8997 261.9659 0001306 104.3309 255.7967 13.15542866242430
ONEWEB-0248             
1 48798U 21045AH  26154.27000426 -.00000809  00000+0 -21822-2 0  9992
2 48798  87.9007 261.9628 0001403 106.6967 253.4318 13.15551111242587
ONEWEB-0225             
1 48799U 21045AJ  26154.59643955  .00000274  00000+0  69278-3 0  9990
2 48799  87.9001 261.9054 0001373  99.2393 260.8892 13.15548266242633
ONEWEB-0215             
1 48800U 21045AK  26154.33814334  .00000008  00000+0 -12952-4 0  9990
2 48800  87.9010 261.9385 0001227 101.5547 258.5721 13.15550439242471
ONEWEB-0216             
1 48801U 21045AL  26154.27161182  .00000086  00000+0  19416-3 0  9996
2 48801  87.9008 261.9667 0001945  98.0186 262.1166 13.15547697242474
ONEWEB-0239             
1 48802U 21045AM  26154.27635943  .00000112  00000+0  26337-3 0  9998
2 48802  87.8996 261.9737 0001153 114.8234 245.3016 13.15547382242513
ONEWEB-0249             
1 48967U 21060A   26154.60143795  .00000035  00000+0  57721-4 0  9999
2 48967  87.9104 231.4753 0001998 104.6075 255.5278 13.16594395237822
ONEWEB-0250             
1 48968U 21060B   26154.57239831  .00000067  00000+0  12263-3 0  9999
2 48968  87.9107 229.2818 0002323 126.3230 233.8121 13.25831949238411
ONEWEB-0252             
1 48970U 21060D   26154.63229970 -.00000010  00000+0 -58538-4 0  9998
2 48970  87.9107 231.4620 0002076  97.4009 262.7358 13.16592989237877
ONEWEB-0253             
1 48971U 21060E   26154.62121577 -.00000051  00000+0 -16591-3 0  9999
2 48971  87.9104 231.4690 0001982 100.8910 259.2444 13.16592898237806
ONEWEB-0254             
1 48972U 21060F   26154.63072421 -.00000052  00000+0 -16864-3 0  9998
2 48972  87.9107 231.4647 0001764 104.4043 255.7284 13.16593594237804
ONEWEB-0255             
1 48973U 21060G   26154.59272768  .00000085  00000+0  18876-3 0  9999
2 48973  87.9106 231.4791 0001843 101.0729 259.0609 13.16593709237879
ONEWEB-0256             
1 48974U 21060H   26154.61883170 -.00000008  00000+0 -55086-4 0  9990
2 48974  87.9100 231.4784 0002127  97.0265 263.1108 13.16592860237845
ONEWEB-0257             
1 48975U 21060J   26154.57530455  .00000082  00000+0  18072-3 0  9994
2 48975  87.9101 231.4744 0001894  95.8708 264.2639 13.16593701237791
ONEWEB-0258             
1 48976U 21060K   26154.57688915  .00000094  00000+0  21354-3 0  9990
2 48976  87.9109 231.4852 0002010 102.7810 257.3546 13.16593648237805
ONEWEB-0259             
1 48977U 21060L   26154.57056138  .00000105  00000+0  24098-3 0  9998
2 48977  87.9105 231.4856 0001978 106.3329 253.8020 13.16594351237836
ONEWEB-0260             
1 48978U 21060M   26154.63783847  .00000008  00000+0 -11698-4 0  9996
2 48978  87.9098 231.4751 0002197  90.3924 269.7459 13.16593157237823
ONEWEB-0261             
1 48979U 21060N   26154.60775895 -.00000074  00000+0 -22717-3 0  9995
2 48979  87.9101 231.4799 0001737  95.5517 264.5812 13.16595038237876
ONEWEB-0262             
1 48980U 21060P   26154.58797634  .00000037  00000+0  61888-4 0  9999
2 48980  87.9106 231.4696 0001908 108.3441 251.7898 13.16593576237831
ONEWEB-0263             
1 48981U 21060Q   26154.61963996 -.00000011  00000+0 -62925-4 0  9997
2 48981  87.9106 231.4750 0001691  98.1618 261.9705 13.16594105237800
ONEWEB-0264             
1 48982U 21060R   26154.58085532  .00000172  00000+0  41664-3 0  9997
2 48982  87.9106 231.4864 0001965  96.0063 264.1292 13.16594421237809
ONEWEB-0266             
1 48984U 21060T   26154.60222066  .00000053  00000+0  10456-3 0  9990
2 48984  87.9106 231.4722 0002079 100.7346 259.4019 13.16593466237798
ONEWEB-0267             
1 48985U 21060U   26154.61330816  .00000010  00000+0 -76773-5 0  9995
2 48985  87.9107 231.4664 0001828  93.4340 266.7000 13.16593889237800
ONEWEB-0268             
1 48986U 21060V   26154.58164144  .00000048  00000+0  91905-4 0  9994
2 48986  87.9108 231.4826 0002076  96.5862 263.5505 13.16595295238068
ONEWEB-0269             
1 48987U 21060W   26154.63863882 -.00000013  00000+0 -66353-4 0  9999
2 48987  87.9101 231.4744 0002281 102.9880 257.1506 13.16593515237849
ONEWEB-0270             
1 48988U 21060X   26154.58006056  .00000062  00000+0  12741-3 0  9999
2 48988  87.9107 231.4843 0001670 103.5672 256.5645 13.16593510237878
ONEWEB-0271             
1 48989U 21060Y   26154.26340449  .00000075  00000+0  16269-3 0  9995
2 48989  87.9103 231.5377 0001768  96.3950 263.7383 13.16593861237838
ONEWEB-0272             
1 48990U 21060Z   26154.58954643  .00000071  00000+0  15089-3 0  9994
2 48990  87.9108 231.4845 0001981  91.7118 268.4240 13.16595959237829
ONEWEB-0273             
1 48991U 21060AA  26154.61172525  .00000038  00000+0  66035-4 0  9991
2 48991  87.9107 231.4790 0001874 100.0758 260.0584 13.16594386237803
ONEWEB-0274             
1 48992U 21060AB  26154.63704443  .00000015  00000+0  56166-5 0  9994
2 48992  87.9095 231.4783 0002135  91.6138 268.5238 13.16592971237841
