OBJECT_NAME,OBJECT_ID,EPOCH,MEAN_MOTION,ECCENTRICITY,INCLINATION,RA_OF_ASC_NODE,ARG_OF_PERICENTER,MEAN_ANOMALY,EPHEMERIS_TYPE,CLASSIFICATION_TYPE,NORAD_CAT_ID,ELEMENT_SET_NO,REV_AT_EPOCH,BSTAR,MEAN_MOTION_DOT,MEAN_MOTION_DDOT
ONEWEB-0236,2021-045AG,2026-06-03T08:00:06.039072,13.15542866,.00013066,87.8997,261.9659,104.3309,255.7967,0,U,48797,999,24243,-.14501486E-2,-.533E-5,0
ONEWEB-0248,2021-045AH,2026-06-03T06:28:48.368064,13.15551111,.00014031,87.9007,261.9628,106.6967,253.4318,0,U,48798,999,24258,-.21821626E-2,-.809E-5,0
ONEWEB-0225,2021-045AJ,2026-06-03T14:18:52.377120,13.15548266,.0001373,87.9001,261.9054,99.2393,260.8892,0,U,48799,999,24263,.69278E-3,.274E-5,0
ONEWEB-0215,2021-045AK,2026-06-03T08:06:55.584576,13.15550439,.00012275,87.9010,261.9385,101.5547,258.5721,0,U,48800,999,24247,-.12952059E-4,.8E-7,0
ONEWEB-0216,2021-045AL,2026-06-03T06:31:07.261248,13.15547697,.00019454,87.9008,261.9667,98.0186,262.1166,0,U,48801,999,24247,.19416371E-3,.86E-6,0
ONEWEB-0239,2021-045AM,2026-06-03T06:37:57.454752,13.15547382,.00011537,87.8996,261.9737,114.8234,245.3016,0,U,48802,999,24251,.26337068E-3,.112E-5,0
ONEWEB-0249,2021-060A,2026-06-03T14:26:04.238880,13.16594395,.00019985,87.9104,231.4753,104.6075,255.5278,0,U,48967,999,23782,.57720774E-4,.35E-6,0
ONEWEB-0250,2021-060B,2026-06-03T13:44:15.213984,13.25831949,.00023238,87.9107,229.2818,126.3230,233.8121,0,U,48968,999,23841,.12262609E-3,.67E-6,0
ONEWEB-0252,2021-060D,2026-06-03T15:10:30.694080,13.16592989,.00020764,87.9107,231.4620,97.4009,262.7358,0,U,48970,999,23787,-.58537519E-4,-.1E-6,0
ONEWEB-0253,2021-060E,2026-06-03T14:54:33.042528,13.16592898,.00019821,87.9104,231.4690,100.8910,259.2444,0,U,48971,999,23780,-.16591263E-3,-.51E-6,0
ONEWEB-0254,2021-060F,2026-06-03T15:08:14.571744,13.16593594,.00017648,87.9107,231.4647,104.4043,255.7284,0,U,48972,999,23780,-.16864491E-3,-.52E-6,0
ONEWEB-0255,2021-060G,2026-06-03T14:13:31.671552,13.16593709,.00018435,87.9106,231.4791,101.0729,259.0609,0,U,48973,999,23787,.1887637E-3,.85E-6,0
ONEWEB-0256,2021-060H,2026-06-03T14:51:07.058880,13.16592860,.00021277,87.9100,231.4784,97.0265,263.1108,0,U,48974,999,23784,-.5508639E-4,-.8E-7,0
ONEWEB-0257,2021-060J,2026-06-03T13:48:26.313120,13.16593701,.00018942,87.9101,231.4744,95.8708,264.2639,0,U,48975,999,23779,.18071501E-3,.82E-6,0
ONEWEB-0258,2021-060K,2026-06-03T13:50:43.222560,13.16593648,.00020101,87.9109,231.4852,102.7810,257.3546,0,U,48976,999,23780,.21353556E-3,.94E-6,0
ONEWEB-0259,2021-060L,2026-06-03T13:41:36.503232,13.16594351,.00019788,87.9105,231.4856,106.3329,253.8020,0,U,48977,999,23783,.24097836E-3,.105E-5,0
ONEWEB-0260,2021-060M,2026-06-03T15:18:29.243808,13.16593157,.00021972,87.9098,231.4751,90.3924,269.7459,0,U,48978,999,23782,-.11697817E-4,.8E-7,0
ONEWEB-0261,2021-060N,2026-06-03T14:35:10.373280,13.16595038,.00017378,87.9101,231.4799,95.5517,264.5812,0,U,48979,999,23787,-.2271711E-3,-.74E-6,0
ONEWEB-0262,2021-060P,2026-06-03T14:06:41.155776,13.16593576,.00019083,87.9106,231.4696,108.3441,251.7898,0,U,48980,999,23783,.61888343E-4,.37E-6,0
ONEWEB-0263,2021-060Q,2026-06-03T14:52:16.892544,13.16594105,.00016912,87.9106,231.4750,98.1618,261.9705,0,U,48981,999,23780,-.62924988E-4,-.11E-6,0
ONEWEB-0264,2021-060R,2026-06-03T13:56:25.899648,13.16594421,.00019653,87.9106,231.4864,96.0063,264.1292,0,U,48982,999,23780,.41663654E-3,.172E-5,0
ONEWEB-0266,2021-060T,2026-06-03T14:27:11.865024,13.16593466,.00020797,87.9106,231.4722,100.7346,259.4019,0,U,48984,999,23779,.1045616E-3,.53E-6,0
ONEWEB-0267,2021-060U,2026-06-03T14:43:09.825024,13.16593889,.00018286,87.9107,231.4664,93.4340,266.7000,0,U,48985,999,23780,-.7677298E-5,.1E-6,0
ONEWEB-0268,2021-060V,2026-06-03T13:57:33.820416,13.16595295,.00020767,87.9108,231.4826,96.5862,263.5505,0,U,48986,999,23806,.91905096E-4,.48E-6,0
ONEWEB-0269,2021-060W,2026-06-03T15:19:38.394048,13.16593515,.00022816,87.9101,231.4744,102.9880,257.1506,0,U,48987,999,23784,-.66352928E-4,-.13E-6,0
ONEWEB-0270,2021-060X,2026-06-03T13:55:17.232384,13.16593510,.000167,87.9107,231.4843,103.5672,256.5645,0,U,48988,999,23787,.12740806E-3,.62E-6,0
ONEWEB-0271,2021-060Y,2026-06-03T06:19:18.147936,13.16593861,.00017687,87.9103,231.5377,96.3950,263.7383,0,U,48989,999,23783,.1626893E-3,.75E-6,0
ONEWEB-0272,2021-060Z,2026-06-03T14:08:56.811552,13.16595959,.00019816,87.9108,231.4845,91.7118,268.4240,0,U,48990,999,23782,.15088509E-3,.71E-6,0
ONEWEB-0273,2021-060AA,2026-06-03T14:40:53.061600,13.16594386,.00018748,87.9107,231.4790,100.0758,260.0584,0,U,48991,999,23780,.66034826E-4,.38E-6,0
ONEWEB-0274,2021-060AB,2026-06-03T15:17:20.638752,13.16592971,.00021353,87.9095,231.4783,91.6138,268.5238,0,U,48992,999,23784,.5616601E-5,.15E-6,0
